ORBCOMM FM103 [+]       
1 40091U 14040F   23323.67481037  .00000501  00000+0  15028-3 0  9996
2 40091  47.0057 210.9947 0001695 174.8517 185.2386 14.56068723497235
ORBCOMM FM114 [+]       
1 41179U 15081A   23323.16096260  .00000682  00000+0  19095-3 0  9992
2 41179  47.0013 122.7554 0002357 224.7882 135.2813 14.56072363420461
ORBCOMM FM119 [-]       
1 41180U 15081B   23323.60889892  .00000616  00000+0  17620-3 0  9993
2 41180  47.0023  29.8391 0002272 282.5993  77.4638 14.56064865421787
ORBCOMM FM105 [-]       
1 41181U 15081C   23323.72999909  .00000264  00000+0  12201-3 0  9997
2 41181  47.0029 340.5479 0002745 266.0789  93.9777 14.44106131417657
ORBCOMM FM110 [+]       
1 41182U 15081D   23323.41242780  .00000810  00000+0  21967-3 0  9998
2 41182  47.0002 120.9941 0001068  56.6098 303.4889 14.56073364420376
ORBCOMM FM118 [+]       
1 41183U 15081E   23323.45823161  .00000668  00000+0  18779-3 0  9999
2 41183  47.0023 121.0486 0001239  51.6147 308.4848 14.56069582420485
ORBCOMM FM112 [+]       
1 41184U 15081F   23323.58695133  .00000863  00000+0  23161-3 0  9998
2 41184  47.0005  29.1942 0002397 270.0582  90.0027 14.56053526421774
ORBCOMM FM113 [+]       
1 41185U 15081G   23323.49455398  .00000713  00000+0  19798-3 0  9991
2 41185  47.0024  29.8562 0001890 282.5672  77.5001 14.56044576421762
